{
  "area_codes": [
    {
      "areaCode": "1",
      "name": "서울특별시",
      "rnum": 1,
      "sub_areas": [
        {
          "areaCode": "101",
          "name": "서울특별시 1구",
          "rnum": 101
        },
        {
          "areaCode": "102",
          "name": "서울특별시 2구",
          "rnum": 102
        },
        {
          "areaCode": "103",
          "name": "서울특별시 3구",
          "rnum": 103
        },
        {
          "areaCode": "104",
          "name": "서울특별시 4구",
          "rnum": 104
        },
        {
          "areaCode": "105",
          "name": "서울특별시 5구",
          "rnum": 105
        },
        {
          "areaCode": "106",
          "name": "서울특별시 6구",
          "rnum": 106
        },
        {
          "areaCode": "107",
          "name": "서울특별시 7구",
          "rnum": 107
        },
        {
          "areaCode": "108",
          "name": "서울특별시 8구",
          "rnum": 108
        }
      ]
    },
    {
      "areaCode": "2",
      "name": "부산광역시",
      "rnum": 2,
      "sub_areas": [
        {
          "areaCode": "201",
          "name": "부산광역시 1구",
          "rnum": 201
        },
        {
          "areaCode": "202",
          "name": "부산광역시 2구",
          "rnum": 202
        },
        {
          "areaCode": "203",
          "name": "부산광역시 3구",
          "rnum": 203
        }
      ]
    },
    {
      "areaCode": "3",
      "name": "대구광역시",
      "rnum": 3,
      "sub_areas": [
        {
          "areaCode": "301",
          "name": "대구광역시 1구",
          "rnum": 301
        },
        {
          "areaCode": "302",
          "name": "대구광역시 2구",
          "rnum": 302
        },
        {
          "areaCode": "303",
          "name": "대구광역시 3구",
          "rnum": 303
        }
      ]
    },
    {
      "areaCode": "4",
      "name": "인천광역시",
      "rnum": 4,
      "sub_areas": [
        {
          "areaCode": "401",
          "name": "인천광역시 1구",
          "rnum": 401
        },
        {
          "areaCode": "402",
          "name": "인천광역시 2구",
          "rnum": 402
        },
        {
          "areaCode": "403",
          "name": "인천광역시 3구",
          "rnum": 403
        },
        {
          "areaCode": "404",
          "name": "인천광역시 4구",
          "rnum": 404
        },
        {
          "areaCode": "405",
          "name": "인천광역시 5구",
          "rnum": 405
        },
        {
          "areaCode": "406",
          "name": "인천광역시 6구",
          "rnum": 406
        },
        {
          "areaCode": "407",
          "name": "인천광역시 7구",
          "rnum": 407
        },
        {
          "areaCode": "408",
          "name": "인천광역시 8구",
          "rnum": 408
        }
      ]
    },
    {
      "areaCode": "5",
      "name": "광주광역시",
      "rnum": 5,
      "sub_areas": [
        {
          "areaCode": "501",
          "name": "광주광역시 1구",
          "rnum": 501
        },
        {
          "areaCode": "502",
          "name": "광주광역시 2구",
          "rnum": 502
        },
        {
          "areaCode": "503",
          "name": "광주광역시 3구",
          "rnum": 503
        },
        {
          "areaCode": "504",
          "name": "광주광역시 4구",
          "rnum": 504
        },
        {
          "areaCode": "505",
          "name": "광주광역시 5구",
          "rnum": 505
        }
      ]
    },
    {
      "areaCode": "6",
      "name": "대전광역시",
      "rnum": 6,
      "sub_areas": [
        {
          "areaCode": "601",
          "name": "대전광역시 1구",
          "rnum": 601
        },
        {
          "areaCode": "602",
          "name": "대전광역시 2구",
          "rnum": 602
        },
        {
          "areaCode": "603",
          "name": "대전광역시 3구",
          "rnum": 603
        },
        {
          "areaCode": "604",
          "name": "대전광역시 4구",
          "rnum": 604
        }
      ]
    },
    {
      "areaCode": "7",
      "name": "울산광역시",
      "rnum": 7,
      "sub_areas": [
        {
          "areaCode": "701",
          "name": "울산광역시 1구",
          "rnum": 701
        },
        {
          "areaCode": "702",
          "name": "울산광역시 2구",
          "rnum": 702
        },
        {
          "areaCode": "703",
          "name": "울산광역시 3구",
          "rnum": 703
        },
        {
          "areaCode": "704",
          "name": "울산광역시 4구",
          "rnum": 704
        }
      ]
    },
    {
      "areaCode": "8",
      "name": "경기도",
      "rnum": 8,
      "sub_areas": [
        {
          "areaCode": "801",
          "name": "경기도 1구",
          "rnum": 801
        },
        {
          "areaCode": "802",
          "name": "경기도 2구",
          "rnum": 802
        },
        {
          "areaCode": "803",
          "name": "경기도 3구",
          "rnum": 803
        },
        {
          "areaCode": "804",
          "name": "경기도 4구",
          "rnum": 804
        }
      ]
    },
    {
      "areaCode": "31",
      "name": "강원도",
      "rnum": 31,
      "sub_areas": [
        {
          "areaCode": "3101",
          "name": "강원도 1구",
          "rnum": 3101
        },
        {
          "areaCode": "3102",
          "name": "강원도 2구",
          "rnum": 3102
        },
        {
          "areaCode": "3103",
          "name": "강원도 3구",
          "rnum": 3103
        },
        {
          "areaCode": "3104",
          "name": "강원도 4구",
          "rnum": 3104
        },
        {
          "areaCode": "3105",
          "name": "강원도 5구",
          "rnum": 3105
        },
        {
          "areaCode": "3106",
          "name": "강원도 6구",
          "rnum": 3106
        },
        {
          "areaCode": "3107",
          "name": "강원도 7구",
          "rnum": 3107
        },
        {
          "areaCode": "3108",
          "name": "강원도 8구",
          "rnum": 3108
        }
      ]
    },
    {
      "areaCode": "32",
      "name": "충청북도",
      "rnum": 32,
      "sub_areas": [
        {
          "areaCode": "3201",
          "name": "충청북도 1구",
          "rnum": 3201
        },
        {
          "areaCode": "3202",
          "name": "충청북도 2구",
          "rnum": 3202
        },
        {
          "areaCode": "3203",
          "name": "충청북도 3구",
          "rnum": 3203
        }
      ]
    },
    {
      "areaCode": "33",
      "name": "충청남도",
      "rnum": 33,
      "sub_areas": [
        {
          "areaCode": "3301",
          "name": "충청남도 1구",
          "rnum": 3301
        },
        {
          "areaCode": "3302",
          "name": "충청남도 2구",
          "rnum": 3302
        },
        {
          "areaCode": "3303",
          "name": "충청남도 3구",
          "rnum": 3303
        },
        {
          "areaCode": "3304",
          "name": "충청남도 4구",
          "rnum": 3304
        },
        {
          "areaCode": "3305",
          "name": "충청남도 5구",
          "rnum": 3305
        },
        {
          "areaCode": "3306",
          "name": "충청남도 6구",
          "rnum": 3306
        },
        {
          "areaCode": "3307",
          "name": "충청남도 7구",
          "rnum": 3307
        },
        {
          "areaCode": "3308",
          "name": "충청남도 8구",
          "rnum": 3308
        }
      ]
    },
    {
      "areaCode": "34",
      "name": "전라북도",
      "rnum": 34,
      "sub_areas": [
        {
          "areaCode": "3401",
          "name": "전라북도 1구",
          "rnum": 3401
        },
        {
          "areaCode": "3402",
          "name": "전라북도 2구",
          "rnum": 3402
        },
        {
          "areaCode": "3403",
          "name": "전라북도 3구",
          "rnum": 3403
        },
        {
          "areaCode": "3404",
          "name": "전라북도 4구",
          "rnum": 3404
        },
        {
          "areaCode": "3405",
          "name": "전라북도 5구",
          "rnum": 3405
        },
        {
          "areaCode": "3406",
          "name": "전라북도 6구",
          "rnum": 3406
        },
        {
          "areaCode": "3407",
          "name": "전라북도 7구",
          "rnum": 3407
        },
        {
          "areaCode": "3408",
          "name": "전라북도 8구",
          "rnum": 3408
        }
      ]
    },
    {
      "areaCode": "35",
      "name": "전라남도",
      "rnum": 35,
      "sub_areas": [
        {
          "areaCode": "3501",
          "name": "전라남도 1구",
          "rnum": 3501
        },
        {
          "areaCode": "3502",
          "name": "전라남도 2구",
          "rnum": 3502
        },
        {
          "areaCode": "3503",
          "name": "전라남도 3구",
          "rnum": 3503
        },
        {
          "areaCode": "3504",
          "name": "전라남도 4구",
          "rnum": 3504
        },
        {
          "areaCode": "3505",
          "name": "전라남도 5구",
          "rnum": 3505
        },
        {
          "areaCode": "3506",
          "name": "전라남도 6구",
          "rnum": 3506
        },
        {
          "areaCode": "3507",
          "name": "전라남도 7구",
          "rnum": 3507
        }
      ]
    },
    {
      "areaCode": "36",
      "name": "경상북도",
      "rnum": 36,
      "sub_areas": [
        {
          "areaCode": "3601",
          "name": "경상북도 1구",
          "rnum": 3601
        },
        {
          "areaCode": "3602",
          "name": "경상북도 2구",
          "rnum": 3602
        },
        {
          "areaCode": "3603",
          "name": "경상북도 3구",
          "rnum": 3603
        }
      ]
    },
    {
      "areaCode": "37",
      "name": "경상남도",
      "rnum": 37,
      "sub_areas": [
        {
          "areaCode": "3701",
          "name": "경상남도 1구",
          "rnum": 3701
        },
        {
          "areaCode": "3702",
          "name": "경상남도 2구",
          "rnum": 3702
        },
        {
          "areaCode": "3703",
          "name": "경상남도 3구",
          "rnum": 3703
        },
        {
          "areaCode": "3704",
          "name": "경상남도 4구",
          "rnum": 3704
        },
        {
          "areaCode": "3705",
          "name": "경상남도 5구",
          "rnum": 3705
        },
        {
          "areaCode": "3706",
          "name": "경상남도 6구",
          "rnum": 3706
        },
        {
          "areaCode": "3707",
          "name": "경상남도 7구",
          "rnum": 3707
        }
      ]
    },
    {
      "areaCode": "39",
      "name": "제주도",
      "rnum": 39,
      "sub_areas": [
        {
          "areaCode": "3901",
          "name": "제주도 1구",
          "rnum": 3901
        },
        {
          "areaCode": "3902",
          "name": "제주도 2구",
          "rnum": 3902
        },
        {
          "areaCode": "3903",
          "name": "제주도 3구",
          "rnum": 3903
        },
        {
          "areaCode": "3904",
          "name": "제주도 4구",
          "rnum": 3904
        },
        {
          "areaCode": "3905",
          "name": "제주도 5구",
          "rnum": 3905
        },
        {
          "areaCode": "3906",
          "name": "제주도 6구",
          "rnum": 3906
        }
      ]
    }
  ],
  "tour_info": [
    {
      "contentid": "100000",
      "contenttypeid": "12",
      "title": "Tourist Attraction",
      "addr1": "Seoul Address 1",
      "addr2": "Detail Address 1",
      "mapx": "126.96833959496072",
      "mapy": "37.53313552881034",
      "createdtime": "20230114000000",
      "modifiedtime": "20230131000000",
      "tel": "02-4257-9928",
      "firstimage": "https://example.com/images/100000_1.jpg",
      "firstimage2": "https://example.com/images/100000_2.jpg",
      "areacode": "1",
      "sigungucode": "102",
      "cat1": "12",
      "cat2": "1201",
      "cat3": "120101",
      "dist": "3536"
    },
    {
      "contentid": "100001",
      "contenttypeid": "14",
      "title": "Tourist Attraction",
      "addr1": "Gyeongnam Address 2",
      "addr2": "Detail Address 2",
      "mapx": "127.08649809133557",
      "mapy": "37.48324987596781",
      "createdtime": "20230323000000",
      "modifiedtime": "20230414000000",
      "tel": "02-7924-6574",
      "firstimage": "https://example.com/images/100001_1.jpg",
      "firstimage2": "https://example.com/images/100001_2.jpg",
      "areacode": "37",
      "sigungucode": "3705",
      "cat1": "14",
      "cat2": "1401",
      "cat3": "140101",
      "dist": "2376"
    },
    {
      "contentid": "100002",
      "contenttypeid": "14",
      "title": "Tourist Attraction",
      "addr1": "Ulsan Address 3",
      "addr2": "Detail Address 3",
      "mapx": "126.94505405530397",
      "mapy": "37.52059273006373",
      "createdtime": "20230703000000",
      "modifiedtime": "20230730000000",
      "tel": "02-6635-5333",
      "firstimage": "https://example.com/images/100002_1.jpg",
      "firstimage2": "https://example.com/images/100002_2.jpg",
      "areacode": "7",
      "sigungucode": "706",
      "cat1": "14",
      "cat2": "1401",
      "cat3": "140101",
      "dist": "455"
    },
    {
      "contentid": "100003",
      "contenttypeid": "38",
      "title": "Tourist Attraction",
      "addr1": "Gyeongnam Address 4",
      "addr2": "Detail Address 4",
      "mapx": "127.11923515279588",
      "mapy": "37.52045343772084",
      "createdtime": "20231010000000",
      "modifiedtime": "20231019000000",
      "tel": "02-6925-4150",
      "firstimage": "https://example.com/images/100003_1.jpg",
      "firstimage2": "https://example.com/images/100003_2.jpg",
      "areacode": "37",
      "sigungucode": "3702",
      "cat1": "38",
      "cat2": "3801",
      "cat3": "380101",
      "dist": "669"
    },
    {
      "contentid": "100004",
      "contenttypeid": "12",
      "title": "Tourist Attraction",
      "addr1": "Gyeonggi Address 5",
      "addr2": "Detail Address 5",
      "mapx": "127.12165630413216",
      "mapy": "37.568131772101516",
      "createdtime": "20230221000000",
      "modifiedtime": "20230305000000",
      "tel": "02-5554-8428",
      "firstimage": "https://example.com/images/100004_1.jpg",
      "firstimage2": "https://example.com/images/100004_2.jpg",
      "areacode": "8",
      "sigungucode": "805",
      "cat1": "12",
      "cat2": "1201",
      "cat3": "120101",
      "dist": "3088"
    },
    {
      "contentid": "100005",
      "contenttypeid": "14",
      "title": "Tourist Attraction",
      "addr1": "Jeonbuk Address 6",
      "addr2": "Detail Address 6",
      "mapx": "126.9665134061543",
      "mapy": "37.50929778220491",
      "createdtime": "20231216000000",
      "modifiedtime": "20240105000000",
      "tel": "02-2169-3803",
      "firstimage": "https://example.com/images/100005_1.jpg",
      "firstimage2": "https://example.com/images/100005_2.jpg",
      "areacode": "34",
      "sigungucode": "3406",
      "cat1": "14",
      "cat2": "1401",
      "cat3": "140101",
      "dist": "4475"
    },
    {
      "contentid": "100006",
      "contenttypeid": "38",
      "title": "Tourist Attraction",
      "addr1": "Gyeonggi Address 7",
      "addr2": "Detail Address 7",
      "mapx": "127.01706404237022",
      "mapy": "37.50959478267843",
      "createdtime": "20231124000000",
      "modifiedtime": "20231216000000",
      "tel": "02-4598-6313",
      "firstimage": "https://example.com/images/100006_1.jpg",
      "firstimage2": "https://example.com/images/100006_2.jpg",
      "areacode": "8",
      "sigungucode": "803",
      "cat1": "38",
      "cat2": "3801",
      "cat3": "380101",
      "dist": "558"
    },
    {
      "contentid": "100007",
      "contenttypeid": "14",
      "title": "Tourist Attraction",
      "addr1": "Busan Address 8",
      "addr2": "Detail Address 8",
      "mapx": "129.05587395740446",
      "mapy": "35.13617286052116",
      "createdtime": "20231018000000",
      "modifiedtime": "20231115000000",
      "tel": "02-6155-4483",
      "firstimage": "https://example.com/images/100007_1.jpg",
      "firstimage2": "https://example.com/images/100007_2.jpg",
      "areacode": "2",
      "sigungucode": "206",
      "cat1": "14",
      "cat2": "1401",
      "cat3": "140101",
      "dist": "4189"
    },
    {
      "contentid": "100008",
      "contenttypeid": "28",
      "title": "Tourist Attraction",
      "addr1": "Gyeongnam Address 9",
      "addr2": "Detail Address 9",
      "mapx": "126.97758803329961",
      "mapy": "37.5072627507694",
      "createdtime": "20231015000000",
      "modifiedtime": "20231101000000",
      "tel": "02-5304-8019",
      "firstimage": "https://example.com/images/100008_1.jpg",
      "firstimage2": "https://example.com/images/100008_2.jpg",
      "areacode": "37",
      "sigungucode": "3703",
      "cat1": "28",
      "cat2": "2801",
      "cat3": "280101",
      "dist": "4880"
    },
    {
      "contentid": "100009",
      "contenttypeid": "28",
      "title": "Tourist Attraction",
      "addr1": "Jeonbuk Address 10",
      "addr2": "Detail Address 10",
      "mapx": "127.12407715559783",
      "mapy": "37.49643317448909",
      "createdtime": "20230910000000",
      "modifiedtime": "20230912000000",
      "tel": "02-1771-2796",
      "firstimage": "https://example.com/images/100009_1.jpg",
      "firstimage2": "https://example.com/images/100009_2.jpg",
      "areacode": "34",
      "sigungucode": "3404",
      "cat1": "28",
      "cat2": "2801",
      "cat3": "280101",
      "dist": "1352"
    },
    {
      "contentid": "100010",
      "contenttypeid": "38",
      "title": "Tourist Attraction",
      "addr1": "Daejeon Address 11",
      "addr2": "Detail Address 11",
      "mapx": "127.0438938061464",
      "mapy": "37.521076731167454",
      "createdtime": "20231102000000",
      "modifiedtime": "20231116000000",
      "tel": "02-9669-5119",
      "firstimage": "https://example.com/images/100010_1.jpg",
      "firstimage2": "https://example.com/images/100010_2.jpg",
      "areacode": "6",
      "sigungucode": "607",
      "cat1": "38",
      "cat2": "3801",
      "cat3": "380101",
      "dist": "4632"
    },
    {
      "contentid": "100011",
      "contenttypeid": "39",
      "title": "Korean Restaurant",
      "addr1": "Seoul Address 12",
      "addr2": "Detail Address 12",
      "mapx": "127.06095407380532",
      "mapy": "37.53629703304088",
      "createdtime": "20230517000000",
      "modifiedtime": "20230610000000",
      "tel": "02-6573-2827",
      "firstimage": "https://example.com/images/100011_1.jpg",
      "firstimage2": "https://example.com/images/100011_2.jpg",
      "areacode": "1",
      "sigungucode": "102",
      "cat1": "39",
      "cat2": "3901",
      "cat3": "390101",
      "dist": "2504"
    },
    {
      "contentid": "100012",
      "contenttypeid": "28",
      "title": "Tourist Attraction",
      "addr1": "Daejeon Address 13",
      "addr2": "Detail Address 13",
      "mapx": "126.92526106322035",
      "mapy": "37.55480920613099",
      "createdtime": "20230515000000",
      "modifiedtime": "20230531000000",
      "tel": "02-3927-9317",
      "firstimage": "https://example.com/images/100012_1.jpg",
      "firstimage2": "https://example.com/images/100012_2.jpg",
      "areacode": "6",
      "sigungucode": "608",
      "cat1": "28",
      "cat2": "2801",
      "cat3": "280101",
      "dist": "971"
    },
    {
      "contentid": "100013",
      "contenttypeid": "39",
      "title": "Korean Restaurant",
      "addr1": "Chungbuk Address 14",
      "addr2": "Detail Address 14",
      "mapx": "126.95517985370994",
      "mapy": "37.558851080007514",
      "createdtime": "20231004000000",
      "modifiedtime": "20231103000000",
      "tel": "02-9689-1009",
      "firstimage": "https://example.com/images/100013_1.jpg",
      "firstimage2": "https://example.com/images/100013_2.jpg",
      "areacode": "32",
      "sigungucode": "3204",
      "cat1": "39",
      "cat2": "3901",
      "cat3": "390101",
      "dist": "2755"
    },
    {
      "contentid": "100014",
      "contenttypeid": "28",
      "title": "Tourist Attraction",
      "addr1": "Seoul Address 15",
      "addr2": "Detail Address 15",
      "mapx": "127.11043172325293",
      "mapy": "37.57047218778232",
      "createdtime": "20230607000000",
      "modifiedtime": "20230614000000",
      "tel": "02-1949-4946",
      "firstimage": "https://example.com/images/100014_1.jpg",
      "firstimage2": "https://example.com/images/100014_2.jpg",
      "areacode": "1",
      "sigungucode": "102",
      "cat1": "28",
      "cat2": "2801",
      "cat3": "280101",
      "dist": "4747"
    },
    {
      "contentid": "100015",
      "contenttypeid": "12",
      "title": "Tourist Attraction",
      "addr1": "Daegu Address 16",
      "addr2": "Detail Address 16",
      "mapx": "128.66464965068403",
      "mapy": "35.91923344936773",
      "createdtime": "20230930000000",
      "modifiedtime": "20231024000000",
      "tel": "02-3060-3103",
      "firstimage": "https://example.com/images/100015_1.jpg",
      "firstimage2": "https://example.com/images/100015_2.jpg",
      "areacode": "3",
      "sigungucode": "308",
      "cat1": "12",
      "cat2": "1201",
      "cat3": "120101",
      "dist": "3993"
    },
    {
      "contentid": "100016",
      "contenttypeid": "32",
      "title": "Hotel Seoul",
      "addr1": "Daejeon Address 17",
      "addr2": "Detail Address 17",
      "mapx": "127.03014675748365",
      "mapy": "37.543259391748265",
      "createdtime": "20230419000000",
      "modifiedtime": "20230518000000",
      "tel": "02-9835-4295",
      "firstimage": "https://example.com/images/100016_1.jpg",
      "firstimage2": "https://example.com/images/100016_2.jpg",
      "areacode": "6",
      "sigungucode": "605",
      "cat1": "32",
      "cat2": "3201",
      "cat3": "320101",
      "dist": "2653"
    },
    {
      "contentid": "100017",
      "contenttypeid": "28",
      "title": "Tourist Attraction",
      "addr1": "Jeonbuk Address 18",
      "addr2": "Detail Address 18",
      "mapx": "127.10453481692859",
      "mapy": "37.527748614139114",
      "createdtime": "20230507000000",
      "modifiedtime": "20230514000000",
      "tel": "02-2049-6539",
      "firstimage": "https://example.com/images/100017_1.jpg",
      "firstimage2": "https://example.com/images/100017_2.jpg",
      "areacode": "34",
      "sigungucode": "3408",
      "cat1": "28",
      "cat2": "2801",
      "cat3": "280101",
      "dist": "272"
    },
    {
      "contentid": "100018",
      "contenttypeid": "32",
      "title": "Hotel Seoul",
      "addr1": "Gyeonggi Address 19",
      "addr2": "Detail Address 19",
      "mapx": "126.92605016779703",
      "mapy": "37.553384094654845",
      "createdtime": "20230131000000",
      "modifiedtime": "20230207000000",
      "tel": "02-2104-1514",
      "firstimage": "https://example.com/images/100018_1.jpg",
      "firstimage2": "https://example.com/images/100018_2.jpg",
      "areacode": "8",
      "sigungucode": "804",
      "cat1": "32",
      "cat2": "3201",
      "cat3": "320101",
      "dist": "2806"
    },
    {
      "contentid": "100019",
      "contenttypeid": "12",
      "title": "Tourist Attraction",
      "addr1": "Gyeonggi Address 20",
      "addr2": "Detail Address 20",
      "mapx": "127.05840755565926",
      "mapy": "37.50402368073705",
      "createdtime": "20230309000000",
      "modifiedtime": "20230401000000",
      "tel": "02-8744-4981",
      "firstimage": "https://example.com/images/100019_1.jpg",
      "firstimage2": "https://example.com/images/100019_2.jpg",
      "areacode": "8",
      "sigungucode": "805",
      "cat1": "12",
      "cat2": "1201",
      "cat3": "120101",
      "dist": "3974"
    },
    {
      "contentid": "100020",
      "contenttypeid": "39",
      "title": "Korean Restaurant",
      "addr1": "Gyeongbuk Address 21",
      "addr2": "Detail Address 21",
      "mapx": "126.94347715929838",
      "mapy": "37.54849827495147",
      "createdtime": "20230701000000",
      "modifiedtime": "20230714000000",
      "tel": "02-7735-8651",
      "firstimage": "https://example.com/images/100020_1.jpg",
      "firstimage2": "https://example.com/images/100020_2.jpg",
      "areacode": "36",
      "sigungucode": "3604",
      "cat1": "39",
      "cat2": "3901",
      "cat3": "390101",
      "dist": "543"
    },
    {
      "contentid": "100021",
      "contenttypeid": "38",
      "title": "Tourist Attraction",
      "addr1": "Incheon Address 22",
      "addr2": "Detail Address 22",
      "mapx": "126.68567425642046",
      "mapy": "37.4401862605395",
      "createdtime": "20230225000000",
      "modifiedtime": "20230304000000",
      "tel": "02-4139-4116",
      "firstimage": "https://example.com/images/100021_1.jpg",
      "firstimage2": "https://example.com/images/100021_2.jpg",
      "areacode": "4",
      "sigungucode": "401",
      "cat1": "38",
      "cat2": "3801",
      "cat3": "380101",
      "dist": "4493"
    },
    {
      "contentid": "100022",
      "contenttypeid": "28",
      "title": "Tourist Attraction",
      "addr1": "Gwangju Address 23",
      "addr2": "Detail Address 23",
      "mapx": "126.96130960715745",
      "mapy": "37.5288628068401",
      "createdtime": "20230208000000",
      "modifiedtime": "20230222000000",
      "tel": "02-2604-1828",
      "firstimage": "https://example.com/images/100022_1.jpg",
      "firstimage2": "https://example.com/images/100022_2.jpg",
      "areacode": "5",
      "sigungucode": "507",
      "cat1": "28",
      "cat2": "2801",
      "cat3": "280101",
      "dist": "4528"
    },
    {
      "contentid": "100023",
      "contenttypeid": "39",
      "title": "Korean Restaurant",
      "addr1": "Seoul Address 24",
      "addr2": "Detail Address 24",
      "mapx": "127.10988539660163",
      "mapy": "37.567469573441436",
      "createdtime": "20230327000000",
      "modifiedtime": "20230409000000",
      "tel": "02-8956-8886",
      "firstimage": "https://example.com/images/100023_1.jpg",
      "firstimage2": "https://example.com/images/100023_2.jpg",
      "areacode": "1",
      "sigungucode": "102",
      "cat1": "39",
      "cat2": "3901",
      "cat3": "390101",
      "dist": "1851"
    },
    {
      "contentid": "100024",
      "contenttypeid": "39",
      "title": "Korean Restaurant",
      "addr1": "Jeonnam Address 25",
      "addr2": "Detail Address 25",
      "mapx": "126.95753942428031",
      "mapy": "37.482815537835144",
      "createdtime": "20230719000000",
      "modifiedtime": "20230727000000",
      "tel": "02-8454-5673",
      "firstimage": "https://example.com/images/100024_1.jpg",
      "firstimage2": "https://example.com/images/100024_2.jpg",
      "areacode": "35",
      "sigungucode": "3501",
      "cat1": "39",
      "cat2": "3901",
      "cat3": "390101",
      "dist": "3565"
    },
    {
      "contentid": "100025",
      "contenttypeid": "38",
      "title": "Tourist Attraction",
      "addr1": "Jeju Address 26",
      "addr2": "Detail Address 26",
      "mapx": "126.46916757345353",
      "mapy": "33.46078108984142",
      "createdtime": "20230130000000",
      "modifiedtime": "20230217000000",
      "tel": "02-9883-1998",
      "firstimage": "https://example.com/images/100025_1.jpg",
      "firstimage2": "https://example.com/images/100025_2.jpg",
      "areacode": "39",
      "sigungucode": "3903",
      "cat1": "38",
      "cat2": "3801",
      "cat3": "380101",
      "dist": "2669"
    },
    {
      "contentid": "100026",
      "contenttypeid": "12",
      "title": "Tourist Attraction",
      "addr1": "Busan Address 27",
      "addr2": "Detail Address 27",
      "mapx": "129.0762110765839",
      "mapy": "35.21482598920483",
      "createdtime": "20230322000000",
      "modifiedtime": "20230323000000",
      "tel": "02-9320-2312",
      "firstimage": "https://example.com/images/100026_1.jpg",
      "firstimage2": "https://example.com/images/100026_2.jpg",
      "areacode": "2",
      "sigungucode": "208",
      "cat1": "12",
      "cat2": "1201",
      "cat3": "120101",
      "dist": "1622"
    },
    {
      "contentid": "100027",
      "contenttypeid": "12",
      "title": "Tourist Attraction",
      "addr1": "Daegu Address 28",
      "addr2": "Detail Address 28",
      "mapx": "128.58220011026367",
      "mapy": "35.915594612722906",
      "createdtime": "20231019000000",
      "modifiedtime": "20231026000000",
      "tel": "02-1651-2343",
      "firstimage": "https://example.com/images/100027_1.jpg",
      "firstimage2": "https://example.com/images/100027_2.jpg",
      "areacode": "3",
      "sigungucode": "304",
      "cat1": "12",
      "cat2": "1201",
      "cat3": "120101",
      "dist": "3534"
    },
    {
      "contentid": "100028",
      "contenttypeid": "38",
      "title": "Tourist Attraction",
      "addr1": "Chungnam Address 29",
      "addr2": "Detail Address 29",
      "mapx": "126.9654638398847",
      "mapy": "37.554219180078945",
      "createdtime": "20230503000000",
      "modifiedtime": "20230511000000",
      "tel": "02-7484-3144",
      "firstimage": "https://example.com/images/100028_1.jpg",
      "firstimage2": "https://example.com/images/100028_2.jpg",
      "areacode": "33",
      "sigungucode": "3305",
      "cat1": "38",
      "cat2": "3801",
      "cat3": "380101",
      "dist": "2557"
    },
    {
      "contentid": "100029",
      "contenttypeid": "28",
      "title": "Tourist Attraction",
      "addr1": "Chungnam Address 30",
      "addr2": "Detail Address 30",
      "mapx": "126.92647509137686",
      "mapy": "37.54471592554931",
      "createdtime": "20231016000000",
      "modifiedtime": "20231019000000",
      "tel": "02-2200-9808",
      "firstimage": "https://example.com/images/100029_1.jpg",
      "firstimage2": "https://example.com/images/100029_2.jpg",
      "areacode": "33",
      "sigungucode": "3302",
      "cat1": "28",
      "cat2": "2801",
      "cat3": "280101",
      "dist": "1846"
    },
    {
      "contentid": "100030",
      "contenttypeid": "32",
      "title": "Hotel Seoul",
      "addr1": "Gangwon Address 31",
      "addr2": "Detail Address 31",
      "mapx": "127.11126387559875",
      "mapy": "37.57068641736865",
      "createdtime": "20230506000000",
      "modifiedtime": "20230517000000",
      "tel": "02-5669-3584",
      "firstimage": "https://example.com/images/100030_1.jpg",
      "firstimage2": "https://example.com/images/100030_2.jpg",
      "areacode": "31",
      "sigungucode": "3103",
      "cat1": "32",
      "cat2": "3201",
      "cat3": "320101",
      "dist": "3689"
    },
    {
      "contentid": "100031",
      "contenttypeid": "39",
      "title": "Korean Restaurant",
      "addr1": "Chungbuk Address 32",
      "addr2": "Detail Address 32",
      "mapx": "127.05818464074252",
      "mapy": "37.53806022824897",
      "createdtime": "20231206000000",
      "modifiedtime": "20231209000000",
      "tel": "02-3200-5333",
      "firstimage": "https://example.com/images/100031_1.jpg",
      "firstimage2": "https://example.com/images/100031_2.jpg",
      "areacode": "32",
      "sigungucode": "3201",
      "cat1": "39",
      "cat2": "3901",
      "cat3": "390101",
      "dist": "1045"
    },
    {
      "contentid": "100032",
      "contenttypeid": "12",
      "title": "Tourist Attraction",
      "addr1": "Gwangju Address 33",
      "addr2": "Detail Address 33",
      "mapx": "126.98096325429158",
      "mapy": "37.50366296548069",
      "createdtime": "20230625000000",
      "modifiedtime": "20230701000000",
      "tel": "02-5325-9280",
      "firstimage": "https://example.com/images/100032_1.jpg",
      "firstimage2": "https://example.com/images/100032_2.jpg",
      "areacode": "5",
      "sigungucode": "505",
      "cat1": "12",
      "cat2": "1201",
      "cat3": "120101",
      "dist": "4102"
    },
    {
      "contentid": "100033",
      "contenttypeid": "15",
      "title": "Korean Festival",
      "addr1": "Busan Address 34",
      "addr2": "Detail Address 34",
      "mapx": "129.10249788946183",
      "mapy": "35.21248880893722",
      "createdtime": "20230123000000",
      "modifiedtime": "20230123000000",
      "tel": "02-6464-3143",
      "firstimage": "https://example.com/images/100033_1.jpg",
      "firstimage2": "https://example.com/images/100033_2.jpg",
      "areacode": "2",
      "sigungucode": "202",
      "cat1": "15",
      "cat2": "1501",
      "cat3": "150101",
      "dist": "2245"
    },
    {
      "contentid": "100034",
      "contenttypeid": "14",
      "title": "Tourist Attraction",
      "addr1": "Gyeongnam Address 35",
      "addr2": "Detail Address 35",
      "mapx": "127.03679337295496",
      "mapy": "37.493787388058934",
      "createdtime": "20231220000000",
      "modifiedtime": "20240117000000",
      "tel": "02-3442-9938",
      "firstimage": "https://example.com/images/100034_1.jpg",
      "firstimage2": "https://example.com/images/100034_2.jpg",
      "areacode": "37",
      "sigungucode": "3707",
      "cat1": "14",
      "cat2": "1401",
      "cat3": "140101",
      "dist": "395"
    },
    {
      "contentid": "100035",
      "contenttypeid": "39",
      "title": "Korean Restaurant",
      "addr1": "Jeonbuk Address 36",
      "addr2": "Detail Address 36",
      "mapx": "127.01056934257616",
      "mapy": "37.486782885816886",
      "createdtime": "20230706000000",
      "modifiedtime": "20230803000000",
      "tel": "02-1653-6862",
      "firstimage": "https://example.com/images/100035_1.jpg",
      "firstimage2": "https://example.com/images/100035_2.jpg",
      "areacode": "34",
      "sigungucode": "3403",
      "cat1": "39",
      "cat2": "3901",
      "cat3": "390101",
      "dist": "1820"
    },
    {
      "contentid": "100036",
      "contenttypeid": "38",
      "title": "Tourist Attraction",
      "addr1": "Gyeonggi Address 37",
      "addr2": "Detail Address 37",
      "mapx": "126.99534772692293",
      "mapy": "37.53858835191439",
      "createdtime": "20230728000000",
      "modifiedtime": "20230816000000",
      "tel": "02-3532-4878",
      "firstimage": "https://example.com/images/100036_1.jpg",
      "firstimage2": "https://example.com/images/100036_2.jpg",
      "areacode": "8",
      "sigungucode": "802",
      "cat1": "38",
      "cat2": "3801",
      "cat3": "380101",
      "dist": "1431"
    },
    {
      "contentid": "100037",
      "contenttypeid": "39",
      "title": "Korean Restaurant",
      "addr1": "Daejeon Address 38",
      "addr2": "Detail Address 38",
      "mapx": "126.92956927237964",
      "mapy": "37.556256447175514",
      "createdtime": "20230620000000",
      "modifiedtime": "20230715000000",
      "tel": "02-7745-5065",
      "firstimage": "https://example.com/images/100037_1.jpg",
      "firstimage2": "https://example.com/images/100037_2.jpg",
      "areacode": "6",
      "sigungucode": "607",
      "cat1": "39",
      "cat2": "3901",
      "cat3": "390101",
      "dist": "2285"
    },
    {
      "contentid": "100038",
      "contenttypeid": "14",
      "title": "Tourist Attraction",
      "addr1": "Incheon Address 39",
      "addr2": "Detail Address 39",
      "mapx": "126.77958335658123",
      "mapy": "37.49211532513378",
      "createdtime": "20230424000000",
      "modifiedtime": "20230430000000",
      "tel": "02-8541-6728",
      "firstimage": "https://example.com/images/100038_1.jpg",
      "firstimage2": "https://example.com/images/100038_2.jpg",
      "areacode": "4",
      "sigungucode": "407",
      "cat1": "14",
      "cat2": "1401",
      "cat3": "140101",
      "dist": "2600"
    },
    {
      "contentid": "100039",
      "contenttypeid": "39",
      "title": "Korean Restaurant",
      "addr1": "Gyeonggi Address 40",
      "addr2": "Detail Address 40",
      "mapx": "126.9293448869403",
      "mapy": "37.50191297883277",
      "createdtime": "20230618000000",
      "modifiedtime": "20230626000000",
      "tel": "02-2137-5573",
      "firstimage": "https://example.com/images/100039_1.jpg",
      "firstimage2": "https://example.com/images/100039_2.jpg",
      "areacode": "8",
      "sigungucode": "804",
      "cat1": "39",
      "cat2": "3901",
      "cat3": "390101",
      "dist": "2976"
    },
    {
      "contentid": "100040",
      "contenttypeid": "38",
      "title": "Tourist Attraction",
      "addr1": "Jeonnam Address 41",
      "addr2": "Detail Address 41",
      "mapx": "127.11245942806495",
      "mapy": "37.494134175185145",
      "createdtime": "20230514000000",
      "modifiedtime": "20230519000000",
      "tel": "02-5349-1626",
      "firstimage": "https://example.com/images/100040_1.jpg",
      "firstimage2": "https://example.com/images/100040_2.jpg",
      "areacode": "35",
      "sigungucode": "3506",
      "cat1": "38",
      "cat2": "3801",
      "cat3": "380101",
      "dist": "988"
    },
    {
      "contentid": "100041",
      "contenttypeid": "32",
      "title": "Hotel Seoul",
      "addr1": "Gyeongbuk Address 42",
      "addr2": "Detail Address 42",
      "mapx": "127.07032101213055",
      "mapy": "37.5139677314195",
      "createdtime": "20231107000000",
      "modifiedtime": "20231123000000",
      "tel": "02-2894-7311",
      "firstimage": "https://example.com/images/100041_1.jpg",
      "firstimage2": "https://example.com/images/100041_2.jpg",
      "areacode": "36",
      "sigungucode": "3606",
      "cat1": "32",
      "cat2": "3201",
      "cat3": "320101",
      "dist": "4823"
    },
    {
      "contentid": "100042",
      "contenttypeid": "14",
      "title": "Tourist Attraction",
      "addr1": "Gangwon Address 43",
      "addr2": "Detail Address 43",
      "mapx": "127.06636905676685",
      "mapy": "37.48276912782187",
      "createdtime": "20231003000000",
      "modifiedtime": "20231024000000",
      "tel": "02-4228-6967",
      "firstimage": "https://example.com/images/100042_1.jpg",
      "firstimage2": "https://example.com/images/100042_2.jpg",
      "areacode": "31",
      "sigungucode": "3101",
      "cat1": "14",
      "cat2": "1401",
      "cat3": "140101",
      "dist": "3633"
    },
    {
      "contentid": "100043",
      "contenttypeid": "12",
      "title": "Tourist Attraction",
      "addr1": "Chungnam Address 44",
      "addr2": "Detail Address 44",
      "mapx": "127.05728949525312",
      "mapy": "37.49506253156644",
      "createdtime": "20230603000000",
      "modifiedtime": "20230619000000",
      "tel": "02-6067-7691",
      "firstimage": "https://example.com/images/100043_1.jpg",
      "firstimage2": "https://example.com/images/100043_2.jpg",
      "areacode": "33",
      "sigungucode": "3306",
      "cat1": "12",
      "cat2": "1201",
      "cat3": "120101",
      "dist": "2772"
    },
    {
      "contentid": "100044",
      "contenttypeid": "28",
      "title": "Tourist Attraction",
      "addr1": "Chungbuk Address 45",
      "addr2": "Detail Address 45",
      "mapx": "126.96298001859803",
      "mapy": "37.54909294342128",
      "createdtime": "20230714000000",
      "modifiedtime": "20230804000000",
      "tel": "02-3851-5930",
      "firstimage": "https://example.com/images/100044_1.jpg",
      "firstimage2": "https://example.com/images/100044_2.jpg",
      "areacode": "32",
      "sigungucode": "3203",
      "cat1": "28",
      "cat2": "2801",
      "cat3": "280101",
      "dist": "3426"
    },
    {
      "contentid": "100045",
      "contenttypeid": "32",
      "title": "Hotel Seoul",
      "addr1": "Seoul Address 46",
      "addr2": "Detail Address 46",
      "mapx": "126.98199474337379",
      "mapy": "37.52558881499898",
      "createdtime": "20231024000000",
      "modifiedtime": "20231112000000",
      "tel": "02-6279-8618",
      "firstimage": "https://example.com/images/100045_1.jpg",
      "firstimage2": "https://example.com/images/100045_2.jpg",
      "areacode": "1",
      "sigungucode": "105",
      "cat1": "32",
      "cat2": "3201",
      "cat3": "320101",
      "dist": "3719"
    },
    {
      "contentid": "100046",
      "contenttypeid": "28",
      "title": "Tourist Attraction",
      "addr1": "Ulsan Address 47",
      "addr2": "Detail Address 47",
      "mapx": "127.08335907982121",
      "mapy": "37.57858320036831",
      "createdtime": "20230328000000",
      "modifiedtime": "20230418000000",
      "tel": "02-2389-5649",
      "firstimage": "https://example.com/images/100046_1.jpg",
      "firstimage2": "https://example.com/images/100046_2.jpg",
      "areacode": "7",
      "sigungucode": "708",
      "cat1": "28",
      "cat2": "2801",
      "cat3": "280101",
      "dist": "4322"
    },
    {
      "contentid": "100047",
      "contenttypeid": "38",
      "title": "Tourist Attraction",
      "addr1": "Chungnam Address 48",
      "addr2": "Detail Address 48",
      "mapx": "127.08829669290733",
      "mapy": "37.55771381375408",
      "createdtime": "20231211000000",
      "modifiedtime": "20231220000000",
      "tel": "02-4680-4262",
      "firstimage": "https://example.com/images/100047_1.jpg",
      "firstimage2": "https://example.com/images/100047_2.jpg",
      "areacode": "33",
      "sigungucode": "3302",
      "cat1": "38",
      "cat2": "3801",
      "cat3": "380101",
      "dist": "1307"
    },
    {
      "contentid": "100048",
      "contenttypeid": "12",
      "title": "Tourist Attraction",
      "addr1": "Busan Address 49",
      "addr2": "Detail Address 49",
      "mapx": "129.17242820455635",
      "mapy": "35.19068139730607",
      "createdtime": "20230207000000",
      "modifiedtime": "20230221000000",
      "tel": "02-7790-4185",
      "firstimage": "https://example.com/images/100048_1.jpg",
      "firstimage2": "https://example.com/images/100048_2.jpg",
      "areacode": "2",
      "sigungucode": "204",
      "cat1": "12",
      "cat2": "1201",
      "cat3": "120101",
      "dist": "3245"
    },
    {
      "contentid": "100049",
      "contenttypeid": "28",
      "title": "Tourist Attraction",
      "addr1": "Jeonnam Address 50",
      "addr2": "Detail Address 50",
      "mapx": "126.95412626901826",
      "mapy": "37.551362241308055",
      "createdtime": "20230224000000",
      "modifiedtime": "20230320000000",
      "tel": "02-7965-4585",
      "firstimage": "https://example.com/images/100049_1.jpg",
      "firstimage2": "https://example.com/images/100049_2.jpg",
      "areacode": "35",
      "sigungucode": "3504",
      "cat1": "28",
      "cat2": "2801",
      "cat3": "280101",
      "dist": "1540"
    }
  ],
  "detail_common": [
    {
      "contentid": "100000",
      "contenttypeid": "12",
      "title": "Tourist Attraction",
      "createdtime": "20230114000000",
      "modifiedtime": "20230131000000",
      "tel": "02-4257-9928",
      "telname": "Information Desk",
      "homepage": "https://example.com/100000",
      "firstimage": "https://example.com/images/100000_1.jpg",
      "firstimage2": "https://example.com/images/100000_2.jpg",
      "cpyrhtDivCd": "Type1",
      "areacode": "1",
      "sigungucode": "102",
      "cat1": "12",
      "cat2": "1201",
      "cat3": "120101",
      "addr1": "Seoul Address 1",
      "addr2": "Detail Address 1",
      "zipcode": "77889",
      "mapx": "126.96833959496072",
      "mapy": "37.53313552881034",
      "mlevel": "4",
      "overview": "A must-visit landmark showcasing traditional Korean architecture and history."
    },
    {
      "contentid": "100001",
      "contenttypeid": "14",
      "title": "Tourist Attraction",
      "createdtime": "20230323000000",
      "modifiedtime": "20230414000000",
      "tel": "02-7924-6574",
      "telname": "Information Desk",
      "homepage": "https://example.com/100001",
      "firstimage": "https://example.com/images/100001_1.jpg",
      "firstimage2": "https://example.com/images/100001_2.jpg",
      "cpyrhtDivCd": "Type1",
      "areacode": "37",
      "sigungucode": "3705",
      "cat1": "14",
      "cat2": "1401",
      "cat3": "140101",
      "addr1": "Gyeongnam Address 2",
      "addr2": "Detail Address 2",
      "zipcode": "83060",
      "mapx": "127.08649809133557",
      "mapy": "37.48324987596781",
      "mlevel": "2",
      "overview": "Historical site with significant cultural and architectural value."
    },
    {
      "contentid": "100002",
      "contenttypeid": "14",
      "title": "Tourist Attraction",
      "createdtime": "20230703000000",
      "modifiedtime": "20230730000000",
      "tel": "02-6635-5333",
      "telname": "Information Desk",
      "homepage": "https://example.com/100002",
      "firstimage": "https://example.com/images/100002_1.jpg",
      "firstimage2": "https://example.com/images/100002_2.jpg",
      "cpyrhtDivCd": "Type1",
      "areacode": "7",
      "sigungucode": "706",
      "cat1": "14",
      "cat2": "1401",
      "cat3": "140101",
      "addr1": "Ulsan Address 3",
      "addr2": "Detail Address 3",
      "zipcode": "25906",
      "mapx": "126.94505405530397",
      "mapy": "37.52059273006373",
      "mlevel": "4",
      "overview": "Popular tourist destination offering beautiful views and cultural experiences."
    },
    {
      "contentid": "100003",
      "contenttypeid": "38",
      "title": "Tourist Attraction",
      "createdtime": "20231010000000",
      "modifiedtime": "20231019000000",
      "tel": "02-6925-4150",
      "telname": "Information Desk",
      "homepage": "https://example.com/100003",
      "firstimage": "https://example.com/images/100003_1.jpg",
      "firstimage2": "https://example.com/images/100003_2.jpg",
      "cpyrhtDivCd": "Type1",
      "areacode": "37",
      "sigungucode": "3702",
      "cat1": "38",
      "cat2": "3801",
      "cat3": "380101",
      "addr1": "Gyeongnam Address 4",
      "addr2": "Detail Address 4",
      "zipcode": "70901",
      "mapx": "127.11923515279588",
      "mapy": "37.52045343772084",
      "mlevel": "3",
      "overview": "Historical site with significant cultural and architectural value."
    },
    {
      "contentid": "100004",
      "contenttypeid": "12",
      "title": "Tourist Attraction",
      "createdtime": "20230221000000",
      "modifiedtime": "20230305000000",
      "tel": "02-5554-8428",
      "telname": "Information Desk",
      "homepage": "https://example.com/100004",
      "firstimage": "https://example.com/images/100004_1.jpg",
      "firstimage2": "https://example.com/images/100004_2.jpg",
      "cpyrhtDivCd": "Type1",
      "areacode": "8",
      "sigungucode": "805",
      "cat1": "12",
      "cat2": "1201",
      "cat3": "120101",
      "addr1": "Gyeonggi Address 5",
      "addr2": "Detail Address 5",
      "zipcode": "68008",
      "mapx": "127.12165630413216",
      "mapy": "37.568131772101516",
      "mlevel": "4",
      "overview": "Historical site with significant cultural and architectural value."
    },
    {
      "contentid": "100005",
      "contenttypeid": "14",
      "title": "Tourist Attraction",
      "createdtime": "20231216000000",
      "modifiedtime": "20240105000000",
      "tel": "02-2169-3803",
      "telname": "Information Desk",
      "homepage": "https://example.com/100005",
      "firstimage": "https://example.com/images/100005_1.jpg",
      "firstimage2": "https://example.com/images/100005_2.jpg",
      "cpyrhtDivCd": "Type1",
      "areacode": "34",
      "sigungucode": "3406",
      "cat1": "14",
      "cat2": "1401",
      "cat3": "140101",
      "addr1": "Jeonbuk Address 6",
      "addr2": "Detail Address 6",
      "zipcode": "81810",
      "mapx": "126.9665134061543",
      "mapy": "37.50929778220491",
      "mlevel": "4",
      "overview": "Popular tourist destination offering beautiful views and cultural experiences."
    },
    {
      "contentid": "100006",
      "contenttypeid": "38",
      "title": "Tourist Attraction",
      "createdtime": "20231124000000",
      "modifiedtime": "20231216000000",
      "tel": "02-4598-6313",
      "telname": "Information Desk",
      "homepage": "https://example.com/100006",
      "firstimage": "https://example.com/images/100006_1.jpg",
      "firstimage2": "https://example.com/images/100006_2.jpg",
      "cpyrhtDivCd": "Type1",
      "areacode": "8",
      "sigungucode": "803",
      "cat1": "38",
      "cat2": "3801",
      "cat3": "380101",
      "addr1": "Gyeonggi Address 7",
      "addr2": "Detail Address 7",
      "zipcode": "72216",
      "mapx": "127.01706404237022",
      "mapy": "37.50959478267843",
      "mlevel": "4",
      "overview": "Modern attraction featuring entertainment, shopping, and dining options."
    },
    {
      "contentid": "100007",
      "contenttypeid": "14",
      "title": "Tourist Attraction",
      "createdtime": "20231018000000",
      "modifiedtime": "20231115000000",
      "tel": "02-6155-4483",
      "telname": "Information Desk",
      "homepage": "https://example.com/100007",
      "firstimage": "https://example.com/images/100007_1.jpg",
      "firstimage2": "https://example.com/images/100007_2.jpg",
      "cpyrhtDivCd": "Type1",
      "areacode": "2",
      "sigungucode": "206",
      "cat1": "14",
      "cat2": "1401",
      "cat3": "140101",
      "addr1": "Busan Address 8",
      "addr2": "Detail Address 8",
      "zipcode": "42406",
      "mapx": "129.05587395740446",
      "mapy": "35.13617286052116",
      "mlevel": "3",
      "overview": "Historical site with significant cultural and architectural value."
    },
    {
      "contentid": "100008",
      "contenttypeid": "28",
      "title": "Tourist Attraction",
      "createdtime": "20231015000000",
      "modifiedtime": "20231101000000",
      "tel": "02-5304-8019",
      "telname": "Information Desk",
      "homepage": "https://example.com/100008",
      "firstimage": "https://example.com/images/100008_1.jpg",
      "firstimage2": "https://example.com/images/100008_2.jpg",
      "cpyrhtDivCd": "Type1",
      "areacode": "37",
      "sigungucode": "3703",
      "cat1": "28",
      "cat2": "2801",
      "cat3": "280101",
      "addr1": "Gyeongnam Address 9",
      "addr2": "Detail Address 9",
      "zipcode": "78327",
      "mapx": "126.97758803329961",
      "mapy": "37.5072627507694",
      "mlevel": "4",
      "overview": "Scenic location perfect for relaxation and enjoying natural beauty."
    },
    {
      "contentid": "100009",
      "contenttypeid": "28",
      "title": "Tourist Attraction",
      "createdtime": "20230910000000",
      "modifiedtime": "20230912000000",
      "tel": "02-1771-2796",
      "telname": "Information Desk",
      "homepage": "https://example.com/100009",
      "firstimage": "https://example.com/images/100009_1.jpg",
      "firstimage2": "https://example.com/images/100009_2.jpg",
      "cpyrhtDivCd": "Type1",
      "areacode": "34",
      "sigungucode": "3404",
      "cat1": "28",
      "cat2": "2801",
      "cat3": "280101",
      "addr1": "Jeonbuk Address 10",
      "addr2": "Detail Address 10",
      "zipcode": "41358",
      "mapx": "127.12407715559783",
      "mapy": "37.49643317448909",
      "mlevel": "3",
      "overview": "Cultural heritage site preserving Korea's rich history and traditions."
    },
    {
      "contentid": "100010",
      "contenttypeid": "38",
      "title": "Tourist Attraction",
      "createdtime": "20231102000000",
      "modifiedtime": "20231116000000",
      "tel": "02-9669-5119",
      "telname": "Information Desk",
      "homepage": "https://example.com/100010",
      "firstimage": "https://example.com/images/100010_1.jpg",
      "firstimage2": "https://example.com/images/100010_2.jpg",
      "cpyrhtDivCd": "Type1",
      "areacode": "6",
      "sigungucode": "607",
      "cat1": "38",
      "cat2": "3801",
      "cat3": "380101",
      "addr1": "Daejeon Address 11",
      "addr2": "Detail Address 11",
      "zipcode": "20155",
      "mapx": "127.0438938061464",
      "mapy": "37.521076731167454",
      "mlevel": "3",
      "overview": "Popular tourist destination offering beautiful views and cultural experiences."
    },
    {
      "contentid": "100011",
      "contenttypeid": "39",
      "title": "Korean Restaurant",
      "createdtime": "20230517000000",
      "modifiedtime": "20230610000000",
      "tel": "02-6573-2827",
      "telname": "Information Desk",
      "homepage": "https://example.com/100011",
      "firstimage": "https://example.com/images/100011_1.jpg",
      "firstimage2": "https://example.com/images/100011_2.jpg",
      "cpyrhtDivCd": "Type1",
      "areacode": "1",
      "sigungucode": "102",
      "cat1": "39",
      "cat2": "3901",
      "cat3": "390101",
      "addr1": "Seoul Address 12",
      "addr2": "Detail Address 12",
      "zipcode": "45614",
      "mapx": "127.06095407380532",
      "mapy": "37.53629703304088",
      "mlevel": "3",
      "overview": "Modern attraction featuring entertainment, shopping, and dining options."
    },
    {
      "contentid": "100012",
      "contenttypeid": "28",
      "title": "Tourist Attraction",
      "createdtime": "20230515000000",
      "modifiedtime": "20230531000000",
      "tel": "02-3927-9317",
      "telname": "Information Desk",
      "homepage": "https://example.com/100012",
      "firstimage": "https://example.com/images/100012_1.jpg",
      "firstimage2": "https://example.com/images/100012_2.jpg",
      "cpyrhtDivCd": "Type1",
      "areacode": "6",
      "sigungucode": "608",
      "cat1": "28",
      "cat2": "2801",
      "cat3": "280101",
      "addr1": "Daejeon Address 13",
      "addr2": "Detail Address 13",
      "zipcode": "80798",
      "mapx": "126.92526106322035",
      "mapy": "37.55480920613099",
      "mlevel": "1",
      "overview": "Popular tourist destination offering beautiful views and cultural experiences."
    },
    {
      "contentid": "100013",
      "contenttypeid": "39",
      "title": "Korean Restaurant",
      "createdtime": "20231004000000",
      "modifiedtime": "20231103000000",
      "tel": "02-9689-1009",
      "telname": "Information Desk",
      "homepage": "https://example.com/100013",
      "firstimage": "https://example.com/images/100013_1.jpg",
      "firstimage2": "https://example.com/images/100013_2.jpg",
      "cpyrhtDivCd": "Type1",
      "areacode": "32",
      "sigungucode": "3204",
      "cat1": "39",
      "cat2": "3901",
      "cat3": "390101",
      "addr1": "Chungbuk Address 14",
      "addr2": "Detail Address 14",
      "zipcode": "29769",
      "mapx": "126.95517985370994",
      "mapy": "37.558851080007514",
      "mlevel": "2",
      "overview": "Cultural heritage site preserving Korea's rich history and traditions."
    },
    {
      "contentid": "100014",
      "contenttypeid": "28",
      "title": "Tourist Attraction",
      "createdtime": "20230607000000",
      "modifiedtime": "20230614000000",
      "tel": "02-1949-4946",
      "telname": "Information Desk",
      "homepage": "https://example.com/100014",
      "firstimage": "https://example.com/images/100014_1.jpg",
      "firstimage2": "https://example.com/images/100014_2.jpg",
      "cpyrhtDivCd": "Type1",
      "areacode": "1",
      "sigungucode": "102",
      "cat1": "28",
      "cat2": "2801",
      "cat3": "280101",
      "addr1": "Seoul Address 15",
      "addr2": "Detail Address 15",
      "zipcode": "30028",
      "mapx": "127.11043172325293",
      "mapy": "37.57047218778232",
      "mlevel": "2",
      "overview": "A must-visit landmark showcasing traditional Korean architecture and history."
    },
    {
      "contentid": "100015",
      "contenttypeid": "12",
      "title": "Tourist Attraction",
      "createdtime": "20230930000000",
      "modifiedtime": "20231024000000",
      "tel": "02-3060-3103",
      "telname": "Information Desk",
      "homepage": "https://example.com/100015",
      "firstimage": "https://example.com/images/100015_1.jpg",
      "firstimage2": "https://example.com/images/100015_2.jpg",
      "cpyrhtDivCd": "Type1",
      "areacode": "3",
      "sigungucode": "308",
      "cat1": "12",
      "cat2": "1201",
      "cat3": "120101",
      "addr1": "Daegu Address 16",
      "addr2": "Detail Address 16",
      "zipcode": "64377",
      "mapx": "128.66464965068403",
      "mapy": "35.91923344936773",
      "mlevel": "4",
      "overview": "Modern attraction featuring entertainment, shopping, and dining options."
    },
    {
      "contentid": "100016",
      "contenttypeid": "32",
      "title": "Hotel Seoul",
      "createdtime": "20230419000000",
      "modifiedtime": "20230518000000",
      "tel": "02-9835-4295",
      "telname": "Information Desk",
      "homepage": "https://example.com/100016",
      "firstimage": "https://example.com/images/100016_1.jpg",
      "firstimage2": "https://example.com/images/100016_2.jpg",
      "cpyrhtDivCd": "Type1",
      "areacode": "6",
      "sigungucode": "605",
      "cat1": "32",
      "cat2": "3201",
      "cat3": "320101",
      "addr1": "Daejeon Address 17",
      "addr2": "Detail Address 17",
      "zipcode": "81121",
      "mapx": "127.03014675748365",
      "mapy": "37.543259391748265",
      "mlevel": "4",
      "overview": "Cultural heritage site preserving Korea's rich history and traditions."
    },
    {
      "contentid": "100017",
      "contenttypeid": "28",
      "title": "Tourist Attraction",
      "createdtime": "20230507000000",
      "modifiedtime": "20230514000000",
      "tel": "02-2049-6539",
      "telname": "Information Desk",
      "homepage": "https://example.com/100017",
      "firstimage": "https://example.com/images/100017_1.jpg",
      "firstimage2": "https://example.com/images/100017_2.jpg",
      "cpyrhtDivCd": "Type1",
      "areacode": "34",
      "sigungucode": "3408",
      "cat1": "28",
      "cat2": "2801",
      "cat3": "280101",
      "addr1": "Jeonbuk Address 18",
      "addr2": "Detail Address 18",
      "zipcode": "18161",
      "mapx": "127.10453481692859",
      "mapy": "37.527748614139114",
      "mlevel": "2",
      "overview": "Historical site with significant cultural and architectural value."
    },
    {
      "contentid": "100018",
      "contenttypeid": "32",
      "title": "Hotel Seoul",
      "createdtime": "20230131000000",
      "modifiedtime": "20230207000000",
      "tel": "02-2104-1514",
      "telname": "Information Desk",
      "homepage": "https://example.com/100018",
      "firstimage": "https://example.com/images/100018_1.jpg",
      "firstimage2": "https://example.com/images/100018_2.jpg",
      "cpyrhtDivCd": "Type1",
      "areacode": "8",
      "sigungucode": "804",
      "cat1": "32",
      "cat2": "3201",
      "cat3": "320101",
      "addr1": "Gyeonggi Address 19",
      "addr2": "Detail Address 19",
      "zipcode": "65069",
      "mapx": "126.92605016779703",
      "mapy": "37.553384094654845",
      "mlevel": "4",
      "overview": "Historical site with significant cultural and architectural value."
    },
    {
      "contentid": "100019",
      "contenttypeid": "12",
      "title": "Tourist Attraction",
      "createdtime": "20230309000000",
      "modifiedtime": "20230401000000",
      "tel": "02-8744-4981",
      "telname": "Information Desk",
      "homepage": "https://example.com/100019",
      "firstimage": "https://example.com/images/100019_1.jpg",
      "firstimage2": "https://example.com/images/100019_2.jpg",
      "cpyrhtDivCd": "Type1",
      "areacode": "8",
      "sigungucode": "805",
      "cat1": "12",
      "cat2": "1201",
      "cat3": "120101",
      "addr1": "Gyeonggi Address 20",
      "addr2": "Detail Address 20",
      "zipcode": "86556",
      "mapx": "127.05840755565926",
      "mapy": "37.50402368073705",
      "mlevel": "1",
      "overview": "Historical site with significant cultural and architectural value."
    },
    {
      "contentid": "100020",
      "contenttypeid": "39",
      "title": "Korean Restaurant",
      "createdtime": "20230701000000",
      "modifiedtime": "20230714000000",
      "tel": "02-7735-8651",
      "telname": "Information Desk",
      "homepage": "https://example.com/100020",
      "firstimage": "https://example.com/images/100020_1.jpg",
      "firstimage2": "https://example.com/images/100020_2.jpg",
      "cpyrhtDivCd": "Type1",
      "areacode": "36",
      "sigungucode": "3604",
      "cat1": "39",
      "cat2": "3901",
      "cat3": "390101",
      "addr1": "Gyeongbuk Address 21",
      "addr2": "Detail Address 21",
      "zipcode": "85456",
      "mapx": "126.94347715929838",
      "mapy": "37.54849827495147",
      "mlevel": "4",
      "overview": "Cultural heritage site preserving Korea's rich history and traditions."
    },
    {
      "contentid": "100021",
      "contenttypeid": "38",
      "title": "Tourist Attraction",
      "createdtime": "20230225000000",
      "modifiedtime": "20230304000000",
      "tel": "02-4139-4116",
      "telname": "Information Desk",
      "homepage": "https://example.com/100021",
      "firstimage": "https://example.com/images/100021_1.jpg",
      "firstimage2": "https://example.com/images/100021_2.jpg",
      "cpyrhtDivCd": "Type1",
      "areacode": "4",
      "sigungucode": "401",
      "cat1": "38",
      "cat2": "3801",
      "cat3": "380101",
      "addr1": "Incheon Address 22",
      "addr2": "Detail Address 22",
      "zipcode": "10772",
      "mapx": "126.68567425642046",
      "mapy": "37.4401862605395",
      "mlevel": "3",
      "overview": "Modern attraction featuring entertainment, shopping, and dining options."
    },
    {
      "contentid": "100022",
      "contenttypeid": "28",
      "title": "Tourist Attraction",
      "createdtime": "20230208000000",
      "modifiedtime": "20230222000000",
      "tel": "02-2604-1828",
      "telname": "Information Desk",
      "homepage": "https://example.com/100022",
      "firstimage": "https://example.com/images/100022_1.jpg",
      "firstimage2": "https://example.com/images/100022_2.jpg",
      "cpyrhtDivCd": "Type1",
      "areacode": "5",
      "sigungucode": "507",
      "cat1": "28",
      "cat2": "2801",
      "cat3": "280101",
      "addr1": "Gwangju Address 23",
      "addr2": "Detail Address 23",
      "zipcode": "61116",
      "mapx": "126.96130960715745",
      "mapy": "37.5288628068401",
      "mlevel": "4",
      "overview": "Vibrant area known for its lively atmosphere and diverse activities."
    },
    {
      "contentid": "100023",
      "contenttypeid": "39",
      "title": "Korean Restaurant",
      "createdtime": "20230327000000",
      "modifiedtime": "20230409000000",
      "tel": "02-8956-8886",
      "telname": "Information Desk",
      "homepage": "https://example.com/100023",
      "firstimage": "https://example.com/images/100023_1.jpg",
      "firstimage2": "https://example.com/images/100023_2.jpg",
      "cpyrhtDivCd": "Type1",
      "areacode": "1",
      "sigungucode": "102",
      "cat1": "39",
      "cat2": "3901",
      "cat3": "390101",
      "addr1": "Seoul Address 24",
      "addr2": "Detail Address 24",
      "zipcode": "81582",
      "mapx": "127.10988539660163",
      "mapy": "37.567469573441436",
      "mlevel": "2",
      "overview": "Cultural heritage site preserving Korea's rich history and traditions."
    },
    {
      "contentid": "100024",
      "contenttypeid": "39",
      "title": "Korean Restaurant",
      "createdtime": "20230719000000",
      "modifiedtime": "20230727000000",
      "tel": "02-8454-5673",
      "telname": "Information Desk",
      "homepage": "https://example.com/100024",
      "firstimage": "https://example.com/images/100024_1.jpg",
      "firstimage2": "https://example.com/images/100024_2.jpg",
      "cpyrhtDivCd": "Type1",
      "areacode": "35",
      "sigungucode": "3501",
      "cat1": "39",
      "cat2": "3901",
      "cat3": "390101",
      "addr1": "Jeonnam Address 25",
      "addr2": "Detail Address 25",
      "zipcode": "38760",
      "mapx": "126.95753942428031",
      "mapy": "37.482815537835144",
      "mlevel": "3",
      "overview": "Cultural heritage site preserving Korea's rich history and traditions."
    },
    {
      "contentid": "100025",
      "contenttypeid": "38",
      "title": "Tourist Attraction",
      "createdtime": "20230130000000",
      "modifiedtime": "20230217000000",
      "tel": "02-9883-1998",
      "telname": "Information Desk",
      "homepage": "https://example.com/100025",
      "firstimage": "https://example.com/images/100025_1.jpg",
      "firstimage2": "https://example.com/images/100025_2.jpg",
      "cpyrhtDivCd": "Type1",
      "areacode": "39",
      "sigungucode": "3903",
      "cat1": "38",
      "cat2": "3801",
      "cat3": "380101",
      "addr1": "Jeju Address 26",
      "addr2": "Detail Address 26",
      "zipcode": "73654",
      "mapx": "126.46916757345353",
      "mapy": "33.46078108984142",
      "mlevel": "1",
      "overview": "Cultural heritage site preserving Korea's rich history and traditions."
    },
    {
      "contentid": "100026",
      "contenttypeid": "12",
      "title": "Tourist Attraction",
      "createdtime": "20230322000000",
      "modifiedtime": "20230323000000",
      "tel": "02-9320-2312",
      "telname": "Information Desk",
      "homepage": "https://example.com/100026",
      "firstimage": "https://example.com/images/100026_1.jpg",
      "firstimage2": "https://example.com/images/100026_2.jpg",
      "cpyrhtDivCd": "Type1",
      "areacode": "2",
      "sigungucode": "208",
      "cat1": "12",
      "cat2": "1201",
      "cat3": "120101",
      "addr1": "Busan Address 27",
      "addr2": "Detail Address 27",
      "zipcode": "54057",
      "mapx": "129.0762110765839",
      "mapy": "35.21482598920483",
      "mlevel": "4",
      "overview": "Scenic location perfect for relaxation and enjoying natural beauty."
    },
    {
      "contentid": "100027",
      "contenttypeid": "12",
      "title": "Tourist Attraction",
      "createdtime": "20231019000000",
      "modifiedtime": "20231026000000",
      "tel": "02-1651-2343",
      "telname": "Information Desk",
      "homepage": "https://example.com/100027",
      "firstimage": "https://example.com/images/100027_1.jpg",
      "firstimage2": "https://example.com/images/100027_2.jpg",
      "cpyrhtDivCd": "Type1",
      "areacode": "3",
      "sigungucode": "304",
      "cat1": "12",
      "cat2": "1201",
      "cat3": "120101",
      "addr1": "Daegu Address 28",
      "addr2": "Detail Address 28",
      "zipcode": "31632",
      "mapx": "128.58220011026367",
      "mapy": "35.915594612722906",
      "mlevel": "4",
      "overview": "Popular tourist destination offering beautiful views and cultural experiences."
    },
    {
      "contentid": "100028",
      "contenttypeid": "38",
      "title": "Tourist Attraction",
      "createdtime": "20230503000000",
      "modifiedtime": "20230511000000",
      "tel": "02-7484-3144",
      "telname": "Information Desk",
      "homepage": "https://example.com/100028",
      "firstimage": "https://example.com/images/100028_1.jpg",
      "firstimage2": "https://example.com/images/100028_2.jpg",
      "cpyrhtDivCd": "Type1",
      "areacode": "33",
      "sigungucode": "3305",
      "cat1": "38",
      "cat2": "3801",
      "cat3": "380101",
      "addr1": "Chungnam Address 29",
      "addr2": "Detail Address 29",
      "zipcode": "91560",
      "mapx": "126.9654638398847",
      "mapy": "37.554219180078945",
      "mlevel": "1",
      "overview": "Cultural heritage site preserving Korea's rich history and traditions."
    },
    {
      "contentid": "100029",
      "contenttypeid": "28",
      "title": "Tourist Attraction",
      "createdtime": "20231016000000",
      "modifiedtime": "20231019000000",
      "tel": "02-2200-9808",
      "telname": "Information Desk",
      "homepage": "https://example.com/100029",
      "firstimage": "https://example.com/images/100029_1.jpg",
      "firstimage2": "https://example.com/images/100029_2.jpg",
      "cpyrhtDivCd": "Type1",
      "areacode": "33",
      "sigungucode": "3302",
      "cat1": "28",
      "cat2": "2801",
      "cat3": "280101",
      "addr1": "Chungnam Address 30",
      "addr2": "Detail Address 30",
      "zipcode": "87580",
      "mapx": "126.92647509137686",
      "mapy": "37.54471592554931",
      "mlevel": "1",
      "overview": "A must-visit landmark showcasing traditional Korean architecture and history."
    },
    {
      "contentid": "100030",
      "contenttypeid": "32",
      "title": "Hotel Seoul",
      "createdtime": "20230506000000",
      "modifiedtime": "20230517000000",
      "tel": "02-5669-3584",
      "telname": "Information Desk",
      "homepage": "https://example.com/100030",
      "firstimage": "https://example.com/images/100030_1.jpg",
      "firstimage2": "https://example.com/images/100030_2.jpg",
      "cpyrhtDivCd": "Type1",
      "areacode": "31",
      "sigungucode": "3103",
      "cat1": "32",
      "cat2": "3201",
      "cat3": "320101",
      "addr1": "Gangwon Address 31",
      "addr2": "Detail Address 31",
      "zipcode": "94246",
      "mapx": "127.11126387559875",
      "mapy": "37.57068641736865",
      "mlevel": "4",
      "overview": "Popular tourist destination offering beautiful views and cultural experiences."
    },
    {
      "contentid": "100031",
      "contenttypeid": "39",
      "title": "Korean Restaurant",
      "createdtime": "20231206000000",
      "modifiedtime": "20231209000000",
      "tel": "02-3200-5333",
      "telname": "Information Desk",
      "homepage": "https://example.com/100031",
      "firstimage": "https://example.com/images/100031_1.jpg",
      "firstimage2": "https://example.com/images/100031_2.jpg",
      "cpyrhtDivCd": "Type1",
      "areacode": "32",
      "sigungucode": "3201",
      "cat1": "39",
      "cat2": "3901",
      "cat3": "390101",
      "addr1": "Chungbuk Address 32",
      "addr2": "Detail Address 32",
      "zipcode": "70515",
      "mapx": "127.05818464074252",
      "mapy": "37.53806022824897",
      "mlevel": "2",
      "overview": "A must-visit landmark showcasing traditional Korean architecture and history."
    },
    {
      "contentid": "100032",
      "contenttypeid": "12",
      "title": "Tourist Attraction",
      "createdtime": "20230625000000",
      "modifiedtime": "20230701000000",
      "tel": "02-5325-9280",
      "telname": "Information Desk",
      "homepage": "https://example.com/100032",
      "firstimage": "https://example.com/images/100032_1.jpg",
      "firstimage2": "https://example.com/images/100032_2.jpg",
      "cpyrhtDivCd": "Type1",
      "areacode": "5",
      "sigungucode": "505",
      "cat1": "12",
      "cat2": "1201",
      "cat3": "120101",
      "addr1": "Gwangju Address 33",
      "addr2": "Detail Address 33",
      "zipcode": "44099",
      "mapx": "126.98096325429158",
      "mapy": "37.50366296548069",
      "mlevel": "4",
      "overview": "Modern attraction featuring entertainment, shopping, and dining options."
    },
    {
      "contentid": "100033",
      "contenttypeid": "15",
      "title": "Korean Festival",
      "createdtime": "20230123000000",
      "modifiedtime": "20230123000000",
      "tel": "02-6464-3143",
      "telname": "Information Desk",
      "homepage": "https://example.com/100033",
      "firstimage": "https://example.com/images/100033_1.jpg",
      "firstimage2": "https://example.com/images/100033_2.jpg",
      "cpyrhtDivCd": "Type1",
      "areacode": "2",
      "sigungucode": "202",
      "cat1": "15",
      "cat2": "1501",
      "cat3": "150101",
      "addr1": "Busan Address 34",
      "addr2": "Detail Address 34",
      "zipcode": "37742",
      "mapx": "129.10249788946183",
      "mapy": "35.21248880893722",
      "mlevel": "4",
      "overview": "Modern attraction featuring entertainment, shopping, and dining options."
    },
    {
      "contentid": "100034",
      "contenttypeid": "14",
      "title": "Tourist Attraction",
      "createdtime": "20231220000000",
      "modifiedtime": "20240117000000",
      "tel": "02-3442-9938",
      "telname": "Information Desk",
      "homepage": "https://example.com/100034",
      "firstimage": "https://example.com/images/100034_1.jpg",
      "firstimage2": "https://example.com/images/100034_2.jpg",
      "cpyrhtDivCd": "Type1",
      "areacode": "37",
      "sigungucode": "3707",
      "cat1": "14",
      "cat2": "1401",
      "cat3": "140101",
      "addr1": "Gyeongnam Address 35",
      "addr2": "Detail Address 35",
      "zipcode": "54236",
      "mapx": "127.03679337295496",
      "mapy": "37.493787388058934",
      "mlevel": "4",
      "overview": "Modern attraction featuring entertainment, shopping, and dining options."
    },
    {
      "contentid": "100035",
      "contenttypeid": "39",
      "title": "Korean Restaurant",
      "createdtime": "20230706000000",
      "modifiedtime": "20230803000000",
      "tel": "02-1653-6862",
      "telname": "Information Desk",
      "homepage": "https://example.com/100035",
      "firstimage": "https://example.com/images/100035_1.jpg",
      "firstimage2": "https://example.com/images/100035_2.jpg",
      "cpyrhtDivCd": "Type1",
      "areacode": "34",
      "sigungucode": "3403",
      "cat1": "39",
      "cat2": "3901",
      "cat3": "390101",
      "addr1": "Jeonbuk Address 36",
      "addr2": "Detail Address 36",
      "zipcode": "65255",
      "mapx": "127.01056934257616",
      "mapy": "37.486782885816886",
      "mlevel": "3",
      "overview": "Historical site with significant cultural and architectural value."
    },
    {
      "contentid": "100036",
      "contenttypeid": "38",
      "title": "Tourist Attraction",
      "createdtime": "20230728000000",
      "modifiedtime": "20230816000000",
      "tel": "02-3532-4878",
      "telname": "Information Desk",
      "homepage": "https://example.com/100036",
      "firstimage": "https://example.com/images/100036_1.jpg",
      "firstimage2": "https://example.com/images/100036_2.jpg",
      "cpyrhtDivCd": "Type1",
      "areacode": "8",
      "sigungucode": "802",
      "cat1": "38",
      "cat2": "3801",
      "cat3": "380101",
      "addr1": "Gyeonggi Address 37",
      "addr2": "Detail Address 37",
      "zipcode": "20735",
      "mapx": "126.99534772692293",
      "mapy": "37.53858835191439",
      "mlevel": "4",
      "overview": "A must-visit landmark showcasing traditional Korean architecture and history."
    },
    {
      "contentid": "100037",
      "contenttypeid": "39",
      "title": "Korean Restaurant",
      "createdtime": "20230620000000",
      "modifiedtime": "20230715000000",
      "tel": "02-7745-5065",
      "telname": "Information Desk",
      "homepage": "https://example.com/100037",
      "firstimage": "https://example.com/images/100037_1.jpg",
      "firstimage2": "https://example.com/images/100037_2.jpg",
      "cpyrhtDivCd": "Type1",
      "areacode": "6",
      "sigungucode": "607",
      "cat1": "39",
      "cat2": "3901",
      "cat3": "390101",
      "addr1": "Daejeon Address 38",
      "addr2": "Detail Address 38",
      "zipcode": "80702",
      "mapx": "126.92956927237964",
      "mapy": "37.556256447175514",
      "mlevel": "1",
      "overview": "Modern attraction featuring entertainment, shopping, and dining options."
    },
    {
      "contentid": "100038",
      "contenttypeid": "14",
      "title": "Tourist Attraction",
      "createdtime": "20230424000000",
      "modifiedtime": "20230430000000",
      "tel": "02-8541-6728",
      "telname": "Information Desk",
      "homepage": "https://example.com/100038",
      "firstimage": "https://example.com/images/100038_1.jpg",
      "firstimage2": "https://example.com/images/100038_2.jpg",
      "cpyrhtDivCd": "Type1",
      "areacode": "4",
      "sigungucode": "407",
      "cat1": "14",
      "cat2": "1401",
      "cat3": "140101",
      "addr1": "Incheon Address 39",
      "addr2": "Detail Address 39",
      "zipcode": "39389",
      "mapx": "126.77958335658123",
      "mapy": "37.49211532513378",
      "mlevel": "1",
      "overview": "Historical site with significant cultural and architectural value."
    },
    {
      "contentid": "100039",
      "contenttypeid": "39",
      "title": "Korean Restaurant",
      "createdtime": "20230618000000",
      "modifiedtime": "20230626000000",
      "tel": "02-2137-5573",
      "telname": "Information Desk",
      "homepage": "https://example.com/100039",
      "firstimage": "https://example.com/images/100039_1.jpg",
      "firstimage2": "https://example.com/images/100039_2.jpg",
      "cpyrhtDivCd": "Type1",
      "areacode": "8",
      "sigungucode": "804",
      "cat1": "39",
      "cat2": "3901",
      "cat3": "390101",
      "addr1": "Gyeonggi Address 40",
      "addr2": "Detail Address 40",
      "zipcode": "95426",
      "mapx": "126.9293448869403",
      "mapy": "37.50191297883277",
      "mlevel": "1",
      "overview": "Historical site with significant cultural and architectural value."
    },
    {
      "contentid": "100040",
      "contenttypeid": "38",
      "title": "Tourist Attraction",
      "createdtime": "20230514000000",
      "modifiedtime": "20230519000000",
      "tel": "02-5349-1626",
      "telname": "Information Desk",
      "homepage": "https://example.com/100040",
      "firstimage": "https://example.com/images/100040_1.jpg",
      "firstimage2": "https://example.com/images/100040_2.jpg",
      "cpyrhtDivCd": "Type1",
      "areacode": "35",
      "sigungucode": "3506",
      "cat1": "38",
      "cat2": "3801",
      "cat3": "380101",
      "addr1": "Jeonnam Address 41",
      "addr2": "Detail Address 41",
      "zipcode": "14067",
      "mapx": "127.11245942806495",
      "mapy": "37.494134175185145",
      "mlevel": "2",
      "overview": "Popular tourist destination offering beautiful views and cultural experiences."
    },
    {
      "contentid": "100041",
      "contenttypeid": "32",
      "title": "Hotel Seoul",
      "createdtime": "20231107000000",
      "modifiedtime": "20231123000000",
      "tel": "02-2894-7311",
      "telname": "Information Desk",
      "homepage": "https://example.com/100041",
      "firstimage": "https://example.com/images/100041_1.jpg",
      "firstimage2": "https://example.com/images/100041_2.jpg",
      "cpyrhtDivCd": "Type1",
      "areacode": "36",
      "sigungucode": "3606",
      "cat1": "32",
      "cat2": "3201",
      "cat3": "320101",
      "addr1": "Gyeongbuk Address 42",
      "addr2": "Detail Address 42",
      "zipcode": "12671",
      "mapx": "127.07032101213055",
      "mapy": "37.5139677314195",
      "mlevel": "2",
      "overview": "Popular tourist destination offering beautiful views and cultural experiences."
    },
    {
      "contentid": "100042",
      "contenttypeid": "14",
      "title": "Tourist Attraction",
      "createdtime": "20231003000000",
      "modifiedtime": "20231024000000",
      "tel": "02-4228-6967",
      "telname": "Information Desk",
      "homepage": "https://example.com/100042",
      "firstimage": "https://example.com/images/100042_1.jpg",
      "firstimage2": "https://example.com/images/100042_2.jpg",
      "cpyrhtDivCd": "Type1",
      "areacode": "31",
      "sigungucode": "3101",
      "cat1": "14",
      "cat2": "1401",
      "cat3": "140101",
      "addr1": "Gangwon Address 43",
      "addr2": "Detail Address 43",
      "zipcode": "26544",
      "mapx": "127.06636905676685",
      "mapy": "37.48276912782187",
      "mlevel": "4",
      "overview": "Scenic location perfect for relaxation and enjoying natural beauty."
    },
    {
      "contentid": "100043",
      "contenttypeid": "12",
      "title": "Tourist Attraction",
      "createdtime": "20230603000000",
      "modifiedtime": "20230619000000",
      "tel": "02-6067-7691",
      "telname": "Information Desk",
      "homepage": "https://example.com/100043",
      "firstimage": "https://example.com/images/100043_1.jpg",
      "firstimage2": "https://example.com/images/100043_2.jpg",
      "cpyrhtDivCd": "Type1",
      "areacode": "33",
      "sigungucode": "3306",
      "cat1": "12",
      "cat2": "1201",
      "cat3": "120101",
      "addr1": "Chungnam Address 44",
      "addr2": "Detail Address 44",
      "zipcode": "24993",
      "mapx": "127.05728949525312",
      "mapy": "37.49506253156644",
      "mlevel": "2",
      "overview": "Cultural heritage site preserving Korea's rich history and traditions."
    },
    {
      "contentid": "100044",
      "contenttypeid": "28",
      "title": "Tourist Attraction",
      "createdtime": "20230714000000",
      "modifiedtime": "20230804000000",
      "tel": "02-3851-5930",
      "telname": "Information Desk",
      "homepage": "https://example.com/100044",
      "firstimage": "https://example.com/images/100044_1.jpg",
      "firstimage2": "https://example.com/images/100044_2.jpg",
      "cpyrhtDivCd": "Type1",
      "areacode": "32",
      "sigungucode": "3203",
      "cat1": "28",
      "cat2": "2801",
      "cat3": "280101",
      "addr1": "Chungbuk Address 45",
      "addr2": "Detail Address 45",
      "zipcode": "43586",
      "mapx": "126.96298001859803",
      "mapy": "37.54909294342128",
      "mlevel": "3",
      "overview": "Popular tourist destination offering beautiful views and cultural experiences."
    },
    {
      "contentid": "100045",
      "contenttypeid": "32",
      "title": "Hotel Seoul",
      "createdtime": "20231024000000",
      "modifiedtime": "20231112000000",
      "tel": "02-6279-8618",
      "telname": "Information Desk",
      "homepage": "https://example.com/100045",
      "firstimage": "https://example.com/images/100045_1.jpg",
      "firstimage2": "https://example.com/images/100045_2.jpg",
      "cpyrhtDivCd": "Type1",
      "areacode": "1",
      "sigungucode": "105",
      "cat1": "32",
      "cat2": "3201",
      "cat3": "320101",
      "addr1": "Seoul Address 46",
      "addr2": "Detail Address 46",
      "zipcode": "89415",
      "mapx": "126.98199474337379",
      "mapy": "37.52558881499898",
      "mlevel": "1",
      "overview": "Historical site with significant cultural and architectural value."
    },
    {
      "contentid": "100046",
      "contenttypeid": "28",
      "title": "Tourist Attraction",
      "createdtime": "20230328000000",
      "modifiedtime": "20230418000000",
      "tel": "02-2389-5649",
      "telname": "Information Desk",
      "homepage": "https://example.com/100046",
      "firstimage": "https://example.com/images/100046_1.jpg",
      "firstimage2": "https://example.com/images/100046_2.jpg",
      "cpyrhtDivCd": "Type1",
      "areacode": "7",
      "sigungucode": "708",
      "cat1": "28",
      "cat2": "2801",
      "cat3": "280101",
      "addr1": "Ulsan Address 47",
      "addr2": "Detail Address 47",
      "zipcode": "31465",
      "mapx": "127.08335907982121",
      "mapy": "37.57858320036831",
      "mlevel": "3",
      "overview": "A must-visit landmark showcasing traditional Korean architecture and history."
    },
    {
      "contentid": "100047",
      "contenttypeid": "38",
      "title": "Tourist Attraction",
      "createdtime": "20231211000000",
      "modifiedtime": "20231220000000",
      "tel": "02-4680-4262",
      "telname": "Information Desk",
      "homepage": "https://example.com/100047",
      "firstimage": "https://example.com/images/100047_1.jpg",
      "firstimage2": "https://example.com/images/100047_2.jpg",
      "cpyrhtDivCd": "Type1",
      "areacode": "33",
      "sigungucode": "3302",
      "cat1": "38",
      "cat2": "3801",
      "cat3": "380101",
      "addr1": "Chungnam Address 48",
      "addr2": "Detail Address 48",
      "zipcode": "85849",
      "mapx": "127.08829669290733",
      "mapy": "37.55771381375408",
      "mlevel": "1",
      "overview": "Modern attraction featuring entertainment, shopping, and dining options."
    },
    {
      "contentid": "100048",
      "contenttypeid": "12",
      "title": "Tourist Attraction",
      "createdtime": "20230207000000",
      "modifiedtime": "20230221000000",
      "tel": "02-7790-4185",
      "telname": "Information Desk",
      "homepage": "https://example.com/100048",
      "firstimage": "https://example.com/images/100048_1.jpg",
      "firstimage2": "https://example.com/images/100048_2.jpg",
      "cpyrhtDivCd": "Type1",
      "areacode": "2",
      "sigungucode": "204",
      "cat1": "12",
      "cat2": "1201",
      "cat3": "120101",
      "addr1": "Busan Address 49",
      "addr2": "Detail Address 49",
      "zipcode": "85470",
      "mapx": "129.17242820455635",
      "mapy": "35.19068139730607",
      "mlevel": "4",
      "overview": "Cultural heritage site preserving Korea's rich history and traditions."
    },
    {
      "contentid": "100049",
      "contenttypeid": "28",
      "title": "Tourist Attraction",
      "createdtime": "20230224000000",
      "modifiedtime": "20230320000000",
      "tel": "02-7965-4585",
      "telname": "Information Desk",
      "homepage": "https://example.com/100049",
      "firstimage": "https://example.com/images/100049_1.jpg",
      "firstimage2": "https://example.com/images/100049_2.jpg",
      "cpyrhtDivCd": "Type1",
      "areacode": "35",
      "sigungucode": "3504",
      "cat1": "28",
      "cat2": "2801",
      "cat3": "280101",
      "addr1": "Jeonnam Address 50",
      "addr2": "Detail Address 50",
      "zipcode": "35995",
      "mapx": "126.95412626901826",
      "mapy": "37.551362241308055",
      "mlevel": "1",
      "overview": "Vibrant area known for its lively atmosphere and diverse activities."
    }
  ]
}